CCSDS_OMM_VERS = 2.0
CREATION_DATE  = 
ORIGINATOR     = 

OBJECT_NAME    = STARLINK-36973
OBJECT_ID      = 2026-042K
CENTER_NAME    = EARTH
REF_FRAME      = TEME
TIME_SYSTEM    = UTC
MEAN_ELEMENT_THEORY = SGP/SGP4

EPOCH          = 2026-03-20T21:05:08.216448
MEAN_MOTION    = 15.81037827
ECCENTRICITY   = .000176
INCLINATION    = 53.1578
RA_OF_ASC_NODE = 138.6158
ARG_OF_PERICENTER = 80.3670
MEAN_ANOMALY   = 279.7552

EPHEMERIS_TYPE = 0
CLASSIFICATION_TYPE = U
NORAD_CAT_ID   = 68078
ELEMENT_SET_NO = 999
REV_AT_EPOCH   = 385
BSTAR          = .19780229E-2
MEAN_MOTION_DOT = .41202E-2
MEAN_MOTION_DDOT = 0

CCSDS_OMM_VERS = 2.0
CREATION_DATE  = 
ORIGINATOR     = 

OBJECT_NAME    = STARLINK-37063
OBJECT_ID      = 2026-042L
CENTER_NAME    = EARTH
REF_FRAME      = TEME
TIME_SYSTEM    = UTC
MEAN_ELEMENT_THEORY = SGP/SGP4

EPOCH          = 2026-03-20T21:06:13.051872
MEAN_MOTION    = 15.81034642
ECCENTRICITY   = .0001645
INCLINATION    = 53.1576
RA_OF_ASC_NODE = 138.6208
ARG_OF_PERICENTER = 66.5671
MEAN_ANOMALY   = 293.5525

EPHEMERIS_TYPE = 0
CLASSIFICATION_TYPE = U
NORAD_CAT_ID   = 68079
ELEMENT_SET_NO = 999
REV_AT_EPOCH   = 385
BSTAR          = .20009553E-2
MEAN_MOTION_DOT = .416989E-2
MEAN_MOTION_DDOT = 0

CCSDS_OMM_VERS = 2.0
CREATION_DATE  = 
ORIGINATOR     = 

OBJECT_NAME    = STARLINK-37051
OBJECT_ID      = 2026-042M
CENTER_NAME    = EARTH
REF_FRAME      = TEME
TIME_SYSTEM    = UTC
MEAN_ELEMENT_THEORY = SGP/SGP4

EPOCH          = 2026-03-20T21:02:58.770240
MEAN_MOTION    = 15.81011343
ECCENTRICITY   = .0001828
INCLINATION    = 53.1576
RA_OF_ASC_NODE = 138.6055
ARG_OF_PERICENTER = 73.5475
MEAN_ANOMALY   = 286.5748

EPHEMERIS_TYPE = 0
CLASSIFICATION_TYPE = U
NORAD_CAT_ID   = 68080
ELEMENT_SET_NO = 999
REV_AT_EPOCH   = 385
BSTAR          = .17957619E-2
MEAN_MOTION_DOT = .371773E-2
MEAN_MOTION_DDOT = 0

CCSDS_OMM_VERS = 2.0
CREATION_DATE  = 
ORIGINATOR     = 

OBJECT_NAME    = STARLINK-37066
OBJECT_ID      = 2026-042N
CENTER_NAME    = EARTH
REF_FRAME      = TEME
TIME_SYSTEM    = UTC
MEAN_ELEMENT_THEORY = SGP/SGP4

EPOCH          = 2026-03-20T15:00:02.567808
MEAN_MOTION    = 15.80231891
ECCENTRICITY   = .0000953
INCLINATION    = 53.1582
RA_OF_ASC_NODE = 139.8790
ARG_OF_PERICENTER = 109.9073
MEAN_ANOMALY   = 250.2053

EPHEMERIS_TYPE = 0
CLASSIFICATION_TYPE = U
NORAD_CAT_ID   = 68081
ELEMENT_SET_NO = 999
REV_AT_EPOCH   = 381
BSTAR          = -.34155E-2
MEAN_MOTION_DOT = -.610839E-2
MEAN_MOTION_DDOT = 0

CCSDS_OMM_VERS = 2.0
CREATION_DATE  = 
ORIGINATOR     = 

OBJECT_NAME    = STARLINK-37054
OBJECT_ID      = 2026-042P
CENTER_NAME    = EARTH
REF_FRAME      = TEME
TIME_SYSTEM    = UTC
MEAN_ELEMENT_THEORY = SGP/SGP4

EPOCH          = 2026-03-20T21:01:54.076512
MEAN_MOTION    = 15.81015634
ECCENTRICITY   = .0002256
INCLINATION    = 53.1578
RA_OF_ASC_NODE = 138.6007
ARG_OF_PERICENTER = 67.7424
MEAN_ANOMALY   = 292.3838

EPHEMERIS_TYPE = 0
CLASSIFICATION_TYPE = U
NORAD_CAT_ID   = 68082
ELEMENT_SET_NO = 999
REV_AT_EPOCH   = 385
BSTAR          = .1828587E-2
MEAN_MOTION_DOT = .378977E-2
MEAN_MOTION_DDOT = 0

CCSDS_OMM_VERS = 2.0
CREATION_DATE  = 
ORIGINATOR     = 

OBJECT_NAME    = STARLINK-37065
OBJECT_ID      = 2026-042Q
CENTER_NAME    = EARTH
REF_FRAME      = TEME
TIME_SYSTEM    = UTC
MEAN_ELEMENT_THEORY = SGP/SGP4

EPOCH          = 2026-03-20T20:00:01.999872
MEAN_MOTION    = 15.75288918
ECCENTRICITY   = .00013035
INCLINATION    = 53.1586
RA_OF_ASC_NODE = 138.8768
ARG_OF_PERICENTER = 93.9336
MEAN_ANOMALY   = 351.4287

EPHEMERIS_TYPE = 0
CLASSIFICATION_TYPE = U
NORAD_CAT_ID   = 68083
ELEMENT_SET_NO = 999
REV_AT_EPOCH   = 384
BSTAR          = -.10068145E-2
MEAN_MOTION_DOT = -.152558E-2
MEAN_MOTION_DDOT = 0

CCSDS_OMM_VERS = 2.0
CREATION_DATE  = 
ORIGINATOR     = 

OBJECT_NAME    = STARLINK-37037
OBJECT_ID      = 2026-042R
CENTER_NAME    = EARTH
REF_FRAME      = TEME
TIME_SYSTEM    = UTC
MEAN_ELEMENT_THEORY = SGP/SGP4

EPOCH          = 2026-03-20T20:59:44.275200
MEAN_MOTION    = 15.81038442
ECCENTRICITY   = .00020296
INCLINATION    = 53.1577
RA_OF_ASC_NODE = 138.5901
ARG_OF_PERICENTER = 68.9410
MEAN_ANOMALY   = 291.1829

EPHEMERIS_TYPE = 0
CLASSIFICATION_TYPE = U
NORAD_CAT_ID   = 68084
ELEMENT_SET_NO = 999
REV_AT_EPOCH   = 385
BSTAR          = .20483589E-2
MEAN_MOTION_DOT = .427481E-2
MEAN_MOTION_DDOT = 0

CCSDS_OMM_VERS = 2.0
CREATION_DATE  = 
ORIGINATOR     = 

OBJECT_NAME    = STARLINK-37068
OBJECT_ID      = 2026-042S
CENTER_NAME    = EARTH
REF_FRAME      = TEME
TIME_SYSTEM    = UTC
MEAN_ELEMENT_THEORY = SGP/SGP4

EPOCH          = 2026-03-20T20:58:39.755136
MEAN_MOTION    = 15.81014647
ECCENTRICITY   = .00023551
INCLINATION    = 53.1577
RA_OF_ASC_NODE = 138.5853
ARG_OF_PERICENTER = 75.4537
MEAN_ANOMALY   = 284.6747

EPHEMERIS_TYPE = 0
CLASSIFICATION_TYPE = U
NORAD_CAT_ID   = 68085
ELEMENT_SET_NO = 999
REV_AT_EPOCH   = 385
BSTAR          = .18426416E-2
MEAN_MOTION_DOT = .382015E-2
MEAN_MOTION_DDOT = 0

CCSDS_OMM_VERS = 2.0
CREATION_DATE  = 
ORIGINATOR     = 

OBJECT_NAME    = STARLINK-37067
OBJECT_ID      = 2026-042T
CENTER_NAME    = EARTH
REF_FRAME      = TEME
TIME_SYSTEM    = UTC
MEAN_ELEMENT_THEORY = SGP/SGP4

EPOCH          = 2026-03-20T20:57:35.199648
MEAN_MOTION    = 15.81031238
ECCENTRICITY   = .0002997
INCLINATION    = 53.1576
RA_OF_ASC_NODE = 138.5809
ARG_OF_PERICENTER = 64.4439
MEAN_ANOMALY   = 295.6893

EPHEMERIS_TYPE = 0
CLASSIFICATION_TYPE = U
NORAD_CAT_ID   = 68086
ELEMENT_SET_NO = 999
REV_AT_EPOCH   = 385
BSTAR          = .22759707E-2
MEAN_MOTION_DOT = .477715E-2
MEAN_MOTION_DDOT = 0

CCSDS_OMM_VERS = 2.0
CREATION_DATE  = 
ORIGINATOR     = 

OBJECT_NAME    = STARLINK-37062
OBJECT_ID      = 2026-042U
CENTER_NAME    = EARTH
REF_FRAME      = TEME
TIME_SYSTEM    = UTC
MEAN_ELEMENT_THEORY = SGP/SGP4

EPOCH          = 2026-03-20T20:00:01.999872
MEAN_MOTION    = 15.80932955
ECCENTRICITY   = .00010829
INCLINATION    = 53.1578
RA_OF_ASC_NODE = 138.7719
ARG_OF_PERICENTER = 72.4044
MEAN_ANOMALY   = 64.4270

EPHEMERIS_TYPE = 0
CLASSIFICATION_TYPE = U
NORAD_CAT_ID   = 68087
ELEMENT_SET_NO = 999
REV_AT_EPOCH   = 384
BSTAR          = -.76369693E-3
MEAN_MOTION_DOT = -.149266E-2
MEAN_MOTION_DDOT = 0

CCSDS_OMM_VERS = 2.0
CREATION_DATE  = 
ORIGINATOR     = 

OBJECT_NAME    = STARLINK-37059
OBJECT_ID      = 2026-042V
CENTER_NAME    = EARTH
REF_FRAME      = TEME
TIME_SYSTEM    = UTC
MEAN_ELEMENT_THEORY = SGP/SGP4

EPOCH          = 2026-03-20T20:00:01.999872
MEAN_MOTION    = 15.80918682
ECCENTRICITY   = .00012841
INCLINATION    = 53.1576
RA_OF_ASC_NODE = 138.7633
ARG_OF_PERICENTER = 70.0840
MEAN_ANOMALY   = 71.0266

EPHEMERIS_TYPE = 0
CLASSIFICATION_TYPE = U
NORAD_CAT_ID   = 68088
ELEMENT_SET_NO = 999
REV_AT_EPOCH   = 384
BSTAR          = -.62331018E-3
MEAN_MOTION_DOT = -.122256E-2
MEAN_MOTION_DDOT = 0

CCSDS_OMM_VERS = 2.0
CREATION_DATE  = 
ORIGINATOR     = 

OBJECT_NAME    = STARLINK-37004
OBJECT_ID      = 2026-042W
CENTER_NAME    = EARTH
REF_FRAME      = TEME
TIME_SYSTEM    = UTC
MEAN_ELEMENT_THEORY = SGP/SGP4

EPOCH          = 2026-03-20T20:00:01.999872
MEAN_MOTION    = 15.80941025
ECCENTRICITY   = .00011808
INCLINATION    = 53.1577
RA_OF_ASC_NODE = 138.7545
ARG_OF_PERICENTER = 93.1475
MEAN_ANOMALY   = 52.2321

EPHEMERIS_TYPE = 0
CLASSIFICATION_TYPE = U
NORAD_CAT_ID   = 68089
ELEMENT_SET_NO = 999
REV_AT_EPOCH   = 384
BSTAR          = -.96223192E-3
MEAN_MOTION_DOT = -.187149E-2
MEAN_MOTION_DDOT = 0

